satname,norad_id,inclination_deg,eccentricity,mean_motion_rev_per_day,perigee_km,apogee_km,l1,l2
STARLINK-1422,45696,53.1578,0.0003196,15.34306986,460.79329048220916,465.16613228412643,1 45696U 20035AR  26152.04204767  .00051768  00000+0  15371-2 0  9991,2 45696  53.1578  21.5981 0003196 127.2807 232.8487 15.34306986331740
STARLINK-1351,45697,53.0443,0.0003941,15.65920797,367.93218439937664,373.2515324856013,1 45697U 20035AS  26153.74720205  .00049743  00000+0  48154-3 0  9996,2 45697  53.0443 327.4301 0003941 131.2500 228.8854 15.65920797332647
STARLINK-1400,45700,53.0432,0.0001845,15.64781848,372.62048969399075,375.1119788874439,1 45700U 20035AV  26154.84307340  .00046879  00000+0  47545-3 0  9994,2 45700  53.0432 324.5738 0001845  64.8109 295.3096 15.64781848332771
STARLINK-1403,45701,53.1556,0.0002095,15.33448215,464.09985992422025,466.9673579093569,1 45701U 20035AW  26153.81017505  .00036305  00000+0  11134-2 0  9999,2 45701  53.1556   0.8405 0002095 157.5846 202.5249 15.33448215332180
STARLINK-1407,45703,53.0278,0.0005859,15.733103,345.50203226203485,353.3854113518473,1 45703U 20035AY  26154.53620663  .00073650  00000+0  52160-3 0  9995,2 45703  53.0278 252.9213 0005859  18.2004 341.9222 15.73310300333759
STARLINK-1411,45706,53.0297,0.0008983,15.89920992,296.5029515534261,308.5053914821747,1 45706U 20035BB  26154.83335647  .00421146  77363-4  13851-2 0  9997,2 45706  53.0297 273.2755 0008983 328.9160  59.2727 15.89920992  6055
STARLINK-1423,45710,53.0434,0.0005682,15.68687328,358.8247180777762,366.48495392020595,1 45710U 20035BF  26154.84849124  .00060933  00000+0  52536-3 0  9999,2 45710  53.0434 321.1070 0005682  87.1587 273.0079 15.68687328332818
STARLINK-1433,45711,53.0438,0.0005578,15.68258115,360.12399486965296,367.6453942721155,1 45711U 20035BG  26154.83283749  .00057057  00000+0  50122-3 0  9996,2 45711  53.0438 319.7733 0005578  91.9189 268.2466 15.68258115332833
STARLINK-1434,45712,53.0517,0.000201,15.3396211,462.6297806152761,465.3803217198447,1 45712U 20035BH  26153.78710890  .00049241  00000+0  14792-2 0  9990,2 45712  53.0517 343.5915 0002010  75.3194 284.8030 15.33962110332424
STARLINK-1465,45731,53.0422,0.0001616,15.65489941,370.7392690846227,372.92085843963105,1 45731U 20038B   26154.33295776  .00052581  00000+0  51748-3 0  9991,2 45731  53.0422 167.7900 0001616  67.2334 292.8851 15.65489941329727
STARLINK-1471,45735,53.0457,0.0003095,15.53270595,405.08440305357453,409.284517037343,1 45735U 20038F   26154.14591278  .00029658  00000+0  46840-3 0  9996,2 45735  53.0457  91.2019 0003095 102.2658 257.8698 15.53270595330792
STARLINK-1480,45741,53.0456,0.0006661,15.64870343,369.1143370249647,378.10901661222215,1 45741U 20038M   26154.31129149  .00052424  00000+0  52834-3 0  9993,2 45741  53.0456 161.5232 0006661  18.1073 342.0177 15.64870343329824
STARLINK-1500,45744,53.034,0.0002018,15.38974182,447.76374760735416,450.51923720688956,1 45744U 20038Q   26154.25070486  .00027132  00000+0  70040-3 0  9995,2 45744  53.0340 150.0434 0002018 104.5748 255.5478 15.38974182329972
STARLINK-1504,45746,53.0199,0.0003633,15.58699776,388.9597362768236,393.8784957507187,1 45746U 20038S   26153.91983770  .00036562  00000+0  47088-3 0  9991,2 45746  53.0199  89.2313 0003633  88.5855 271.5573 15.58699776330789
STARLINK-1506,45747,53.0725,0.00026,15.28236529,479.3005184090225,482.86731328526275,1 45747U 20038T   26154.25215071  .00008349  00000+0  31171-3 0  9990,2 45747  53.0725 165.9016 0002600 151.0969 209.0174 15.28236529329761
STARLINK-1464,45751,53.0449,0.0004559,15.53884152,402.3055889877778,408.4908163855871,1 45751U 20038X   26154.23923032  .00029671  00000+0  45824-3 0  9997,2 45751  53.0449 154.5841 0004559  26.0901 334.0338 15.53884152329918
STARLINK-1477,45754,53.0485,0.0001614,15.18705006,508.6416467136787,510.8650577193739,1 45754U 20038AA  26154.30500954  .00026778  00000+0  12852-2 0  9991,2 45754  53.0485 182.4988 0001614 345.7656  14.3293 15.18705006329526
STARLINK-1478,45755,53.044,0.0004969,15.67885838,361.6012233747906,368.3025050880633,1 45755U 20038AB  26154.23483873  .00062527  00000+0  55690-3 0  9994,2 45755  53.0440 139.8317 0004969  58.7078 301.4423 15.67885838330102
STARLINK-1493,45759,53.0452,0.0007056,15.64627929,369.54451632119617,379.07356817601794,1 45759U 20038AF  26154.82282897  .00076932  00000+0  77779-3 0  9993,2 45759  53.0452 146.5227 0007056  17.6758 342.4501 15.64627929330062
STARLINK-1494,45760,53.0373,0.0001769,16.06650789,254.87342804286345,257.2206023474391,1 45760U 20038AG  26154.95326470  .00562282  16545-3  72338-3 0  9994,2 45760  53.0373  74.8287 0001769 179.0210 181.0826 16.06650789331083
STARLINK-1502,45764,53.044,0.0006423,15.60857961,380.8334618054723,389.5216156619299,1 45764U 20038AL  26154.28958622  .00096032  00000+0  11207-2 0  9991,2 45764  53.0440 152.8274 0006423 350.7783   9.3111 15.60857961329941
STARLINK-1470,45772,53.0433,0.0004426,15.34874813,458.26522829331134,464.31949116254236,1 45772U 20038AU  26154.22274132  .00041163  00000+0  12041-2 0  9993,2 45772  53.0433 135.1134 0004426  25.1339 334.9877 15.34874813330182
STARLINK-1482,45773,53.1573,0.0006383,15.373808,449.4971298249793,458.21885463205945,1 45773U 20038AV  26154.30540200  .00047566  00000+0  12811-2 0  9993,2 45773  53.1573 151.1642 0006383  16.2071 343.9136 15.37380800329984
STARLINK-1496,45780,53.0449,7.79e-05,15.68188012,363.56040049728927,364.61083878142836,1 45780U 20038BC  26154.83335647 -.00019392  00000+0 -16575-3 0  9996,2 45780  53.0449 120.9099 0000779 103.0758 120.9936 15.68188012  5924
STARLINK-1513,45786,53.1595,0.0001713,15.31707381,469.54478407678744,471.8912017973689,1 45786U 20038BJ  26154.20449858  .00001685  00000+0  66047-4 0  9997,2 45786  53.1595 153.4109 0001713 114.8729 245.2451 15.31707381329943
STARLINK-1522,46027,53.0629,0.0003321,15.12842363,525.2433711011945,529.8301196028578,1 46027U 20055A   26153.14703541  .00032988  00000+0  18634-2 0  9996,2 46027  53.0629 104.7005 0003321  35.7851 324.3363 15.12842363321657
STARLINK-1523,46028,53.1624,0.0001221,15.30320202,474.0194409375972,475.6929418749396,1 46028U 20055B   26153.10472867  .00014789  00000+0  50858-3 0  9991,2 46028  53.1624  94.6031 0001221  93.9431 266.1709 15.30320202321826
STARLINK-1526,46029,53.1621,0.0001309,15.30206448,474.29871565545363,476.0929181869251,1 46029U 20055C   26154.14360467  .00006385  00000+0  22748-3 0  9999,2 46029  53.1621  89.7849 0001309 114.8093 245.3044 15.30206448321972
STARLINK-1555,46032,53.1605,0.0001321,15.30189895,474.33990949985036,476.1505730879999,1 46032U 20055F   26153.14808918  .00003530  00000+0  13128-3 0  9991,2 46032  53.1605  94.3943 0001321 114.0017 246.1122 15.30189895321823
STARLINK-1556,46033,53.1591,0.000206,15.30196874,473.81261065870785,476.63619555678815,1 46033U 20055G   26153.13123807  .00003548  00000+0  13188-3 0  9993,2 46033  53.1591  94.4945 0002060  45.4727 314.6441 15.30196874321793
STARLINK-1557,46034,53.1597,0.0001149,15.30194118,474.4451798966211,476.02008423807,1 46034U 20055H   26153.13439548  .00003221  00000+0  12085-3 0  9999,2 46034  53.1597  94.4626 0001149  84.6069 275.5063 15.30194118321791
STARLINK-1558,46035,53.1606,0.0002408,15.30201212,473.56116430127076,476.8617369150834,1 46035U 20055J   26153.92553834  .00002228  00000+0  87353-4 0  9999,2 46035  53.1606  90.7839 0002408 144.6167 215.4994 15.30201212321940
STARLINK-1560,46036,53.1596,0.0001152,15.30190021,474.45535548566477,476.03437466737887,1 46036U 20055K   26153.12807475  .00001183  00000+0  52090-4 0  9994,2 46036  53.1596  94.5104 0001152  81.3936 278.7196 15.30190021321820
STARLINK-1569,46039,53.159,0.0001519,15.30194625,474.1900916302893,476.27214486461344,1 46039U 20055N   26154.84313257  .00011602  00000+0  40331-3 0  9998,2 46039  53.1590  86.5281 0001519  92.9764 267.1411 15.30194625322072
STARLINK-1582,46043,53.1604,0.000124,15.31697732,469.8974944382262,471.59601760971964,1 46043U 20055S   26153.10252537  .00000292  00000+0  21171-4 0  9999,2 46043  53.1604  94.0793 0001240  91.1257 268.9887 15.31697732321819
STARLINK-1591,46045,53.1605,0.0001256,15.30189669,474.38513120243715,476.10670099096023,1 46045U 20055U   26153.11227167  .00005215  00000+0  18815-3 0  9993,2 46045  53.1605  94.5696 0001256  93.5274 266.5871 15.30189669321799
STARLINK-1524,46047,53.1608,0.000124,15.31691136,469.9171544519386,471.6156824997206,1 46047U 20055W   26154.83360507 -.00006212  00000+0 -18862-3 0  9993,2 46047  53.1608  73.3175 0001240  99.5867 260.5275 15.31691136322261
STARLINK-1527,46048,53.1615,0.0001343,15.31719054,469.7634002795012,471.60299338437017,1 46048U 20055X   26154.30694214  .00009475  00000+0  31653-3 0  9996,2 46048  53.1615  75.7527 0001343  90.0242 270.0914 15.31719054322158
STARLINK-1540,46051,53.161,9.83e-05,15.31716492,470.01759409685656,471.36407364899696,1 46051U 20055AA  26154.09723180  .00008100  00000+0  27235-3 0  9996,2 46051  53.1610  76.9374 0000983 111.8559 248.2548 15.31716492322166
STARLINK-1541,46052,53.1585,0.0002812,15.82694016,320.94139845713926,324.71001988477747,1 46052U 20055AB  26154.83335647  .00126746  00000+0  58467-3 0  9994,2 46052  53.1585  58.8466 0002812 206.9467 105.9019 15.82694016  6036
STARLINK-1543,46053,53.16,0.0001246,15.3170918,469.85926359607856,471.56599692393866,1 46053U 20055AC  26153.09049377  .00008108  00000+0  27268-3 0  9990,2 46053  53.1600  81.4306 0001246 103.0831 257.0310 15.31709180322006
STARLINK-1548,46054,53.159,0.000148,15.31698248,469.7315832832164,471.7588524197008,1 46054U 20055AD  26153.03923755  .00000358  00000+0  23321-4 0  9992,2 46054  53.1590  81.7436 0001480 106.5087 253.6077 15.31698248321994
STARLINK-1554,46055,53.1596,0.0001053,15.31698787,470.0224239895633,471.46479824626476,1 46055U 20055AE  26153.02058497  .00001719  00000+0  67149-4 0  9992,2 46055  53.1596  81.7750 0001053  83.9914 276.1207 15.31698787321996
